{"type": "FeatureCollection", "features": [ {"type": "Feature", "properties": {"norad_id": 33917, "name": "COSMOS 2251 DEB", "group": "cosmos-2251-debris", "lat": 73.03726291756416, "lon": -133.50346973224694, "alt_km": 1109.2090011307782, "timestamp": "2025-12-16T21:38:57.568238+00:00", "meta": {"OBJECT_NAME": "COSMOS 2251 DEB", "OBJECT_ID": "1993-036DW", "EPOCH": "2025-12-16T01:52:06.623616", "MEAN_MOTION": 13.69366002, "ECCENTRICITY": 0.03313116, "INCLINATION": 74.107, "RA_OF_ASC_NODE": 116.92, "ARG_OF_PERICENTER": 217.1552, "MEAN_ANOMALY": 140.6223, "EPHEMERIS_TYPE": 0, "CLASSIFICATION_TYPE": "U", "NORAD_CAT_ID": 33917, "ELEMENT_SET_NO": 999, "REV_AT_EPOCH": 83779, "BSTAR": 0.00072033933, "MEAN_MOTION_DOT": 8.97e-06, "MEAN_MOTION_DDOT": 0}, "tle": {"line1": "1 33917U 93036DW  25350.07785444  .00000897  00000+0  72034-3 0  9990", "line2": "2 33917  74.1070 116.9200 0331311 217.1552 140.6223 13.69366002837796"}}, "geometry": {"type": "Point", "coordinates": [-133.50346973224694, 73.03726291756416]}}, {"type": "Feature", "properties": {"norad_id": 33920, "name": "COSMOS 2251 DEB", "group": "cosmos-2251-debris", "lat": 67.01433461413242, "lon": -27.129116000514564, "alt_km": 711.2722935446718, "timestamp": "2025-12-16T21:38:57.568249+00:00", "meta": {"OBJECT_NAME": "COSMOS 2251 DEB", "OBJECT_ID": "1993-036DZ", "EPOCH": "2025-12-16T03:12:15.143040", "MEAN_MOTION": 14.58334795, "ECCENTRICITY": 0.00380587, "INCLINATION": 74.0619, "RA_OF_ASC_NODE": 291.9782, "ARG_OF_PERICENTER": 297.9916, "MEAN_ANOMALY": 61.74, "EPHEMERIS_TYPE": 0, "CLASSIFICATION_TYPE": "U", "NORAD_CAT_ID": 33920, "ELEMENT_SET_NO": 999, "REV_AT_EPOCH": 88164, "BSTAR": 0.0013009676, "MEAN_MOTION_DOT": 6.056e-05, "MEAN_MOTION_DDOT": 0}, "tle": {"line1": "1 33920U 93036DZ  25350.13350860  .00006056  00000+0  13010-2 0  9992", "line2": "2 33920  74.0619 291.9782 0038058 297.9916  61.7400 14.58334795881645"}}, "geometry": {"type": "Point", "coordinates": [-27.129116000514564, 67.01433461413242]}}, {"type": "Feature", "properties": {"norad_id": 33922, "name": "COSMOS 2251 DEB", "group": "cosmos-2251-debris", "lat": 72.63602134630867, "lon": -153.86199228558596, "alt_km": 735.9429152351213, "timestamp": "2025-12-16T21:38:57.568259+00:00", "meta": {"OBJECT_NAME": "COSMOS 2251 DEB", "OBJECT_ID": "1993-036EB", "EPOCH": "2025-12-15T21:07:06.780576", "MEAN_MOTION": 14.49519761, "ECCENTRICITY": 0.00232227, "INCLINATION": 74.0466, "RA_OF_ASC_NODE": 141.8751, "ARG_OF_PERICENTER": 252.0966, "MEAN_ANOMALY": 259.5452, "EPHEMERIS_TYPE": 0, "CLASSIFICATION_TYPE": "U", "NORAD_CAT_ID": 33922, "ELEMENT_SET_NO": 999, "REV_AT_EPOCH": 88623, "BSTAR": 0.00040253856, "MEAN_MOTION_DOT": 1.521e-05, "MEAN_MOTION_DDOT": 0}, "tle": {"line1": "1 33922U 93036EB  25349.87993959  .00001521  00000+0  40254-3 0  9998", "line2": "2 33922  74.0466 141.8751 0023222 252.0966 259.5452 14.49519761886232"}}, "geometry": {"type": "Point", "coordinates": [-153.86199228558596, 72.63602134630867]}}, {"type": "Feature", "properties": {"norad_id": 33924, "name": "COSMOS 2251 DEB", "group": "cosmos-2251-debris", "lat": -29.400423517852623, "lon": -105.84612602079623, "alt_km": 816.1435686413952, "timestamp": "2025-12-16T21:38:57.568269+00:00", "meta": {"OBJECT_NAME": "COSMOS 2251 DEB", "OBJECT_ID": "1993-036ED", "EPOCH": "2025-12-16T04:00:42.344064", "MEAN_MOTION": 13.50230278, "ECCENTRICITY": 0.04039652, "INCLINATION": 73.9135, "RA_OF_ASC_NODE": 264.6921, "ARG_OF_PERICENTER": 299.5439, "MEAN_ANOMALY": 56.5963, "EPHEMERIS_TYPE": 0, "CLASSIFICATION_TYPE": "U", "NORAD_CAT_ID": 33924, "ELEMENT_SET_NO": 999, "REV_AT_EPOCH": 82785, "BSTAR": 0.00061985136, "MEAN_MOTION_DOT": 6.33e-06, "MEAN_MOTION_DDOT": 0}, "tle": {"line1": "1 33924U 93036ED  25350.16715676  .00000633  00000+0  61985-3 0  9999", "line2": "2 33924  73.9135 264.6921 0403965 299.5439  56.5963 13.50230278827854"}}, "geometry": {"type": "Point", "coordinates": [-105.84612602079623, -29.400423517852623]}}, {"type": "Feature", "properties": {"norad_id": 33928, "name": "COSMOS 2251 DEB", "group": "cosmos-2251-debris", "lat": -67.90044055061513, "lon": -90.02786991163673, "alt_km": 735.6716836553305, "timestamp": "2025-12-16T21:38:57.568279+00:00", "meta": {"OBJECT_NAME": "COSMOS 2251 DEB", "OBJECT_ID": "1993-036EH", "EPOCH": "2025-12-16T03:53:03.509952", "MEAN_MOTION": 14.47410692, "ECCENTRICITY": 0.00616302, "INCLINATION": 73.9259, "RA_OF_ASC_NODE": 46.1224, "ARG_OF_PERICENTER": 339.5117, "MEAN_ANOMALY": 20.357, "EPHEMERIS_TYPE": 0, "CLASSIFICATION_TYPE": "U", "NORAD_CAT_ID": 33928, "ELEMENT_SET_NO": 999, "REV_AT_EPOCH": 88694, "BSTAR": 0.00021574271, "MEAN_MOTION_DOT": 7.81e-06, "MEAN_MOTION_DDOT": 0}, "tle": {"line1": "1 33928U 93036EH  25350.16184618  .00000781  00000+0  21574-3 0  9993", "line2": "2 33928  73.9259  46.1224 0061630 339.5117  20.3570 14.47410692886946"}}, "geometry": {"type": "Point", "coordinates": [-90.02786991163673, -67.90044055061513]}}, {"type": "Feature", "properties": {"norad_id": 33932, "name": "COSMOS 2251 DEB", "group": "cosmos-2251-debris", "lat": -72.5655342829294, "lon": -166.0271112264576, "alt_km": 782.3131740837625, "timestamp": "2025-12-16T21:38:57.568289+00:00", "meta": {"OBJECT_NAME": "COSMOS 2251 DEB", "OBJECT_ID": "1993-036EM", "EPOCH": "2025-12-16T07:04:48.670464", "MEAN_MOTION": 14.3876876, "ECCENTRICITY": 0.00354928, "INCLINATION": 74.0339, "RA_OF_ASC_NODE": 309.3601, "ARG_OF_PERICENTER": 24.6763, "MEAN_ANOMALY": 335.6079, "EPHEMERIS_TYPE": 0, "CLASSIFICATION_TYPE": "U", "NORAD_CAT_ID": 33932, "ELEMENT_SET_NO": 999, "REV_AT_EPOCH": 88049, "BSTAR": 0.00046223328, "MEAN_MOTION_DOT": 1.404e-05, "MEAN_MOTION_DDOT": 0}, "tle": {"line1": "1 33932U 93036EM  25350.29500776  .00001404  00000+0  46223-3 0  9990", "line2": "2 33932  74.0339 309.3601 0035492  24.6763 335.6079 14.38768760880493"}}, "geometry": {"type": "Point", "coordinates": [-166.0271112264576, -72.5655342829294]}}, {"type": "Feature", "properties": {"norad_id": 33933, "name": "COSMOS 2251 DEB", "group": "cosmos-2251-debris", "lat": 30.87223641220237, "lon": 62.369570203875675, "alt_km": 732.9411419768112, "timestamp": "2025-12-16T21:38:57.568300+00:00", "meta": {"OBJECT_NAME": "COSMOS 2251 DEB", "OBJECT_ID": "1993-036EN", "EPOCH": "2025-12-16T06:25:36.537600", "MEAN_MOTION": 14.33494481, "ECCENTRICITY": 0.00708278, "INCLINATION": 74.0894, "RA_OF_ASC_NODE": 53.7067, "ARG_OF_PERICENTER": 61.0607, "MEAN_ANOMALY": 299.7623, "EPHEMERIS_TYPE": 0, "CLASSIFICATION_TYPE": "U", "NORAD_CAT_ID": 33933, "ELEMENT_SET_NO": 999, "REV_AT_EPOCH": 87835, "BSTAR": 0.00024785149, "MEAN_MOTION_DOT": 6.79e-06, "MEAN_MOTION_DDOT": 0}, "tle": {"line1": "1 33933U 93036EN  25350.26778400  .00000679  00000+0  24785-3 0  9991", "line2": "2 33933  74.0894  53.7067 0070827  61.0607 299.7623 14.33494481878357"}}, "geometry": {"type": "Point", "coordinates": [62.369570203875675, 30.87223641220237]}}, {"type": "Feature", "properties": {"norad_id": 33934, "name": "COSMOS 2251 DEB", "group": "cosmos-2251-debris", "lat": 6.648410738113477, "lon": -89.27041788412248, "alt_km": 689.6722569957656, "timestamp": "2025-12-16T21:38:57.568310+00:00", "meta": {"OBJECT_NAME": "COSMOS 2251 DEB", "OBJECT_ID": "1993-036EP", "EPOCH": "2025-12-16T07:41:39.780384", "MEAN_MOTION": 14.5914134, "ECCENTRICITY": 0.00155454, "INCLINATION": 74.038, "RA_OF_ASC_NODE": 93.7488, "ARG_OF_PERICENTER": 217.6512, "MEAN_ANOMALY": 142.3567, "EPHEMERIS_TYPE": 0, "CLASSIFICATION_TYPE": "U", "NORAD_CAT_ID": 33934, "ELEMENT_SET_NO": 999, "REV_AT_EPOCH": 88791, "BSTAR": 0.00065726833, "MEAN_MOTION_DOT": 3.072e-05, "MEAN_MOTION_DDOT": 0}, "tle": {"line1": "1 33934U 93036EP  25350.32059931  .00003072  00000+0  65727-3 0  9991", "line2": "2 33934  74.0380  93.7488 0015545 217.6512 142.3567 14.59141340887912"}}, "geometry": {"type": "Point", "coordinates": [-89.27041788412248, 6.648410738113477]}}, {"type": "Feature", "properties": {"norad_id": 33936, "name": "COSMOS 2251 DEB", "group": "cosmos-2251-debris", "lat": 57.92179093546468, "lon": -177.67942990773025, "alt_km": 678.3565146277551, "timestamp": "2025-12-16T21:38:57.568320+00:00", "meta": {"OBJECT_NAME": "COSMOS 2251 DEB", "OBJECT_ID": "1993-036ER", "EPOCH": "2025-12-16T04:40:01.564320", "MEAN_MOTION": 14.60294326, "ECCENTRICITY": 0.00273147, "INCLINATION": 74.0186, "RA_OF_ASC_NODE": 30.8814, "ARG_OF_PERICENTER": 185.5798, "MEAN_ANOMALY": 174.5068, "EPHEMERIS_TYPE": 0, "CLASSIFICATION_TYPE": "U", "NORAD_CAT_ID": 33936, "ELEMENT_SET_NO": 999, "REV_AT_EPOCH": 88940, "BSTAR": 0.0004893838, "MEAN_MOTION_DOT": 2.346e-05, "MEAN_MOTION_DDOT": 0}, "tle": {"line1": "1 33936U 93036ER  25350.19446255  .00002346  00000+0  48938-3 0  9995", "line2": "2 33936  74.0186  30.8814 0027314 185.5798 174.5068 14.60294326889403"}}, "geometry": {"type": "Point", "coordinates": [-177.67942990773025, 57.92179093546468]}}, {"type": "Feature", "properties": {"norad_id": 33938, "name": "COSMOS 2251 DEB", "group": "cosmos-2251-debris", "lat": 47.32419477447813, "lon": 1.328519970101249, "alt_km": 742.0413297099121, "timestamp": "2025-12-16T21:38:57.568330+00:00", "meta": {"OBJECT_NAME": "COSMOS 2251 DEB", "OBJECT_ID": "1993-036ET", "EPOCH": "2025-12-16T01:51:41.787936", "MEAN_MOTION": 14.46804164, "ECCENTRICITY": 0.00168601, "INCLINATION": 74.0446, "RA_OF_ASC_NODE": 200.9444, "ARG_OF_PERICENTER": 282.7953, "MEAN_ANOMALY": 234.7495, "EPHEMERIS_TYPE": 0, "CLASSIFICATION_TYPE": "U", "NORAD_CAT_ID": 33938, "ELEMENT_SET_NO": 999, "REV_AT_EPOCH": 88448, "BSTAR": 0.00032705287, "MEAN_MOTION_DOT": 1.16e-05, "MEAN_MOTION_DDOT": 0}, "tle": {"line1": "1 33938U 93036ET  25350.07756699  .00001160  00000+0  32705-3 0  9998", "line2": "2 33938  74.0446 200.9444 0016860 282.7953 234.7495 14.46804164884487"}}, "geometry": {"type": "Point", "coordinates": [1.328519970101249, 47.32419477447813]}}]}